{
  "type": "FeatureCollection",
  "features": [
    {
      "type": "Feature",
      "properties": {
        "norad_id": 44334,
        "name": "EUTELSAT 7C",
        "group": "eutelsat",
        "lat": 0.025153073844554796,
        "lon": -131.11872070740776,
        "alt_km": 35774.17936485697,
        "timestamp": "2025-12-18T08:58:43.063578+00:00",
        "meta_object_name": "EUTELSAT 7C",
        "meta_object_id": "2019-034B",
        "meta_epoch": "2025-12-17T18:29:45.341952",
        "meta_mean_motion": 1.00271366,
        "meta_eccentricity": 0.00030213,
        "meta_inclination": 0.0726,
        "meta_ra_of_asc_node": 178.5781,
        "meta_arg_of_pericenter": 70.8485,
        "meta_mean_anomaly": 121.644,
        "meta_ephemeris_type": 0,
        "meta_classification_type": "U",
        "meta_norad_cat_id": 44334,
        "meta_element_set_no": 999,
        "meta_rev_at_epoch": 501,
        "meta_bstar": 0,
        "meta_mean_motion_dot": 7.3e-07,
        "meta_mean_motion_ddot": 0,
        "tle_line1": "1 44334U 19034B   25351.77066368  .00000073  00000+0  00000+0 0  9992",
        "tle_line2": "2 44334   0.0726 178.5781 0003021  70.8485 121.6440  1.00271366  5010"
      },
      "geometry": {
        "type": "Point",
        "coordinates": [
          -131.11872070740776,
          0.025153073844554796
        ]
      }
    },
    {
      "type": "Feature",
      "properties": {
        "norad_id": 44624,
        "name": "EUTELSAT 5 WEST B",
        "group": "eutelsat",
        "lat": -0.08558084329322581,
        "lon": -143.1159097523311,
        "alt_km": 35778.27066678879,
        "timestamp": "2025-12-18T08:58:43.063591+00:00",
        "meta_object_name": "EUTELSAT 5 WEST B",
        "meta_object_id": "2019-067A",
        "meta_epoch": "2025-12-17T18:26:15.676800",
        "meta_mean_motion": 1.00270214,
        "meta_eccentricity": 0.00030814,
        "meta_inclination": 0.0703,
        "meta_ra_of_asc_node": 329.9765,
        "meta_arg_of_pericenter": 297.7811,
        "meta_mean_anomaly": 90.458,
        "meta_ephemeris_type": 0,
        "meta_classification_type": "U",
        "meta_norad_cat_id": 44624,
        "meta_element_set_no": 999,
        "meta_rev_at_epoch": 2261,
        "meta_bstar": 0,
        "meta_mean_motion_dot": -1.7e-07,
        "meta_mean_motion_ddot": 0,
        "tle_line1": "1 44624U 19067A   25351.76823700 -.00000017  00000+0  00000+0 0  9999",
        "tle_line2": "2 44624   0.0703 329.9765 0003081 297.7811  90.4580  1.00270214 22614"
      },
      "geometry": {
        "type": "Point",
        "coordinates": [
          -143.1159097523311,
          -0.08558084329322581
        ]
      }
    },
    {
      "type": "Feature",
      "properties": {
        "norad_id": 45027,
        "name": "EUTELSAT KONNECT",
        "group": "eutelsat",
        "lat": 0.02332705266217102,
        "lon": -130.90538462495923,
        "alt_km": 35782.994396760456,
        "timestamp": "2025-12-18T08:58:43.063603+00:00",
        "meta_object_name": "EUTELSAT KONNECT",
        "meta_object_id": "2020-005B",
        "meta_epoch": "2025-12-17T18:29:45.341952",
        "meta_mean_motion": 1.00271708,
        "meta_eccentricity": 0.00013012,
        "meta_inclination": 0.0711,
        "meta_ra_of_asc_node": 96.0401,
        "meta_arg_of_pericenter": 189.4666,
        "meta_mean_anomaly": 85.7765,
        "meta_ephemeris_type": 0,
        "meta_classification_type": "U",
        "meta_norad_cat_id": 45027,
        "meta_element_set_no": 999,
        "meta_rev_at_epoch": 2251,
        "meta_bstar": 0,
        "meta_mean_motion_dot": 7.4e-07,
        "meta_mean_motion_ddot": 0,
        "tle_line1": "1 45027U 20005B   25351.77066368  .00000074  00000+0  00000+0 0  9993",
        "tle_line2": "2 45027   0.0711  96.0401 0001301 189.4666  85.7765  1.00271708 22518"
      },
      "geometry": {
        "type": "Point",
        "coordinates": [
          -130.90538462495923,
          0.02332705266217102
        ]
      }
    },
    {
      "type": "Feature",
      "properties": {
        "norad_id": 49056,
        "name": "EUTELSAT QUANTUM",
        "group": "eutelsat",
        "lat": -0.037444040685932725,
        "lon": -90.39428859297047,
        "alt_km": 35772.24570355689,
        "timestamp": "2025-12-18T08:58:43.063615+00:00",
        "meta_object_name": "EUTELSAT QUANTUM",
        "meta_object_id": "2021-069B",
        "meta_epoch": "2025-12-17T20:42:38.695104",
        "meta_mean_motion": 1.00271046,
        "meta_eccentricity": 0.00033356,
        "meta_inclination": 0.014,
        "meta_ra_of_asc_node": 16.9545,
        "meta_arg_of_pericenter": 260.7488,
        "meta_mean_anomaly": 167.3985,
        "meta_ephemeris_type": 0,
        "meta_classification_type": "U",
        "meta_norad_cat_id": 49056,
        "meta_element_set_no": 999,
        "meta_rev_at_epoch": 1611,
        "meta_bstar": 0,
        "meta_mean_motion_dot": 1.51e-06,
        "meta_mean_motion_ddot": 0,
        "tle_line1": "1 49056U 21069B   25351.86294786  .00000151  00000+0  00000+0 0  9993",
        "tle_line2": "2 49056   0.0140  16.9545 0003335 260.7488 167.3985  1.00271046 16119"
      },
      "geometry": {
        "type": "Point",
        "coordinates": [
          -90.39428859297047,
          -0.037444040685932725
        ]
      }
    },
    {
      "type": "Feature",
      "properties": {
        "norad_id": 53765,
        "name": "EUTELSAT KONNECT VHTS",
        "group": "eutelsat",
        "lat": 0.027106359647620846,
        "lon": -135.37534394801818,
        "alt_km": 35777.10996810472,
        "timestamp": "2025-12-18T08:58:43.063627+00:00",
        "meta_object_name": "EUTELSAT KONNECT VHTS",
        "meta_object_id": "2022-110A",
        "meta_epoch": "2025-12-16T21:55:49.974240",
        "meta_mean_motion": 1.00270385,
        "meta_eccentricity": 0.00023075,
        "meta_inclination": 0.0652,
        "meta_ra_of_asc_node": 101.283,
        "meta_arg_of_pericenter": 141.3704,
        "meta_mean_anomaly": 174.8367,
        "meta_ephemeris_type": 0,
        "meta_classification_type": "U",
        "meta_norad_cat_id": 53765,
        "meta_element_set_no": 999,
        "meta_rev_at_epoch": 499,
        "meta_bstar": 0,
        "meta_mean_motion_dot": 4.1e-07,
        "meta_mean_motion_ddot": 0,
        "tle_line1": "1 53765U 22110A   25350.91377285  .00000041  00000+0  00000+0 0  9992",
        "tle_line2": "2 53765   0.0652 101.2830 0002307 141.3704 174.8367  1.00270385  4992"
      },
      "geometry": {
        "type": "Point",
        "coordinates": [
          -135.37534394801818,
          0.027106359647620846
        ]
      }
    },
    {
      "type": "Feature",
      "properties": {
        "norad_id": 54048,
        "name": "EUTELSAT HOTBIRD 13F",
        "group": "eutelsat",
        "lat": -0.06446568709193654,
        "lon": -125.1217844612882,
        "alt_km": 35792.10446421104,
        "timestamp": "2025-12-18T08:58:43.063639+00:00",
        "meta_object_name": "EUTELSAT HOTBIRD 13F",
        "meta_object_id": "2022-134A",
        "meta_epoch": "2025-12-17T18:31:22.686240",
        "meta_mean_motion": 1.00271349,
        "meta_eccentricity": 0.00022128,
        "meta_inclination": 0.0531,
        "meta_ra_of_asc_node": 292.166,
        "meta_arg_of_pericenter": 72.4278,
        "meta_mean_anomaly": 12.8877,
        "meta_ephemeris_type": 0,
        "meta_classification_type": "U",
        "meta_norad_cat_id": 54048,
        "meta_element_set_no": 999,
        "meta_rev_at_epoch": 1155,
        "meta_bstar": 0,
        "meta_mean_motion_dot": 1.12e-06,
        "meta_mean_motion_ddot": 0,
        "tle_line1": "1 54048U 22134A   25351.77179035  .00000112  00000+0  00000+0 0  9990",
        "tle_line2": "2 54048   0.0531 292.1660 0002212  72.4278  12.8877  1.00271349 11557"
      },
      "geometry": {
        "type": "Point",
        "coordinates": [
          -125.1217844612882,
          -0.06446568709193654
        ]
      }
    },
    {
      "type": "Feature",
      "properties": {
        "norad_id": 54225,
        "name": "EUTELSAT HOTBIRD 13G",
        "group": "eutelsat",
        "lat": -0.026040995844774737,
        "lon": -125.0852369338808,
        "alt_km": 35782.23818038922,
        "timestamp": "2025-12-18T08:58:43.063651+00:00",
        "meta_object_name": "EUTELSAT HOTBIRD 13G",
        "meta_object_id": "2022-146A",
        "meta_epoch": "2025-12-17T18:31:22.686240",
        "meta_mean_motion": 1.00271375,
        "meta_eccentricity": 0.00019269,
        "meta_inclination": 0.0522,
        "meta_ra_of_asc_node": 235.4156,
        "meta_arg_of_pericenter": 298.3682,
        "meta_mean_anomaly": 203.6955,
        "meta_ephemeris_type": 0,
        "meta_classification_type": "U",
        "meta_norad_cat_id": 54225,
        "meta_element_set_no": 999,
        "meta_rev_at_epoch": 564,
        "meta_bstar": 0,
        "meta_mean_motion_dot": 1.12e-06,
        "meta_mean_motion_ddot": 0,
        "tle_line1": "1 54225U 22146A   25351.77179035  .00000112  00000+0  00000+0 0  9990",
        "tle_line2": "2 54225   0.0522 235.4156 0001926 298.3682 203.6955  1.00271375  5642"
      },
      "geometry": {
        "type": "Point",
        "coordinates": [
          -125.0852369338808,
          -0.026040995844774737
        ]
      }
    }
  ]
}